[{"OBJECT_NAME":"STARLINK-32774","OBJECT_ID":"2025-014C","EPOCH":"2026-03-09T07:41:39.741504","MEAN_MOTION":15.27599235,"ECCENTRICITY":0.00028234,"INCLINATION":43.0002,"RA_OF_ASC_NODE":159.7013,"ARG_OF_PERICENTER":289.4482,"MEAN_ANOMALY":70.6064,"EPHEMERIS_TYPE":0,"CLASSIFICATION_TYPE":"U","NORAD_CAT_ID":62737,"ELEMENT_SET_NO":999,"REV_AT_EPOCH":6316,"BSTAR":0.0013263468,"MEAN_MOTION_DOT":0.0003644,"MEAN_MOTION_DDOT":0},{"OBJECT_NAME":"KUIPER-00213","OBJECT_ID":"2026-030P","EPOCH":"2026-03-09T22:00:01.999584","MEAN_MOTION":15.32626943,"ECCENTRICITY":0.00152813,"INCLINATION":51.8816,"RA_OF_ASC_NODE":218.5142,"ARG_OF_PERICENTER":64.2462,"MEAN_ANOMALY":206.8369,"EPHEMERIS_TYPE":0,"CLASSIFICATION_TYPE":"U","NORAD_CAT_ID":67777,"ELEMENT_SET_NO":999,"REV_AT_EPOCH":502,"BSTAR":0.0016072376,"MEAN_MOTION_DOT":0.00051551,"MEAN_MOTION_DDOT":0}]
